IRIDIUM 36              
1 24967U 97056C   24288.82665732  .00001547  00000+0  51446-3 0  9997
2 24967  86.3907 276.0343 0002550  89.5314 270.6175 14.37118866416970
IRIDIUM 39              
1 25042U 97069D   24289.16578268  .00001903  00000+0  50123-3 0  9998
2 25042  86.3893 316.2006 0019815  49.8502 310.4433 14.48466836413749
IRIDIUM 38              
1 25043U 97069E   24289.14336619  .00001355  00000+0  44541-3 0  9997
2 25043  86.3978 336.2759 0002888 133.2537 226.8902 14.37614286411009
IRIDIUM 42              
1 25077U 97077A   24288.71212803  .00001200  00000+0  40750-3 0  9990
2 25077  86.3994 342.3211 0002057 110.7766 249.3651 14.35886790405965
IRIDIUM 44              
1 25078U 97077B   24289.18764482  .00001349  00000+0  42472-3 0  9995
2 25078  86.3951 324.7039 0004016 101.4441 258.7209 14.39732946408474
IRIDIUM 45              
1 25104U 97082A   24288.88203644  .00021497  00000+0  10373-2 0  9995
2 25104  86.3669 165.8154 0145546 161.3608 199.3042 15.09589939414872
IRIDIUM 24              
1 25105U 97082B   24289.19556046  .00001469  00000+0  44569-3 0  9990
2 25105  86.3982 184.1036 0011822 156.4720 203.7023 14.41569726408164
IRIDIUM 51              
1 25262U 98018A   24289.14891610  .00037378  00000+0  14145-2 0  9992
2 25262  86.3988 175.1258 0130411  97.7342 263.8732 15.19085147409793
